[{"OBJECT_NAME":"ICEYE-X57","OBJECT_ID":"2025-135BC","EPOCH":"2026-03-09T22:18:00.647424","MEAN_MOTION":15.00870088,"ECCENTRICITY":0.00021914,"INCLINATION":97.7623,"RA_OF_ASC_NODE":185.2979,"ARG_OF_PERICENTER":76.2741,"MEAN_ANOMALY":283.8727,"EPHEMERIS_TYPE":0,"CLASSIFICATION_TYPE":"U","NORAD_CAT_ID":64578,"ELEMENT_SET_NO":999,"REV_AT_EPOCH":3913,"BSTAR":0.00060837081,"MEAN_MOTION_DOT":7.683e-5,"MEAN_MOTION_DDOT":0},{"OBJECT_NAME":"STARLINK-35997","OBJECT_ID":"2025-280Y","EPOCH":"2026-03-09T22:21:26.676864","MEAN_MOTION":14.98330654,"ECCENTRICITY":0.00019646,"INCLINATION":70.0036,"RA_OF_ASC_NODE":333.7811,"ARG_OF_PERICENTER":266.2728,"MEAN_ANOMALY":93.8207,"EPHEMERIS_TYPE":0,"CLASSIFICATION_TYPE":"U","NORAD_CAT_ID":66843,"ELEMENT_SET_NO":999,"REV_AT_EPOCH":1611,"BSTAR":0.00074923265,"MEAN_MOTION_DOT":8.858e-5,"MEAN_MOTION_DDOT":0}]
